[
    {
        "Altitude(m)": 610405.2894072143,
        "Argument of Periapsis(deg)": 0.0,
        "Eccentricity": 0.0,
        "Inclination(deg)": 60.0,
        "Latitude(deg)": 52.11117881293066,
        "Longitude(deg)": -137.52246378286426,
        "Mean Anomaly(deg)": 114.54549999999999,
        "RAAN(deg)": 190.0,
        "Satellite Name": "Test1 843",
        "Satellite Number": 843,
        "Semi-Major Axis(m)": 6980739.136638005,
        "Time(s)": 0
    },
    {
        "Altitude(m)": 610321.861832284,
        "Argument of Periapsis(deg)": 0.00010418945913296404,
        "Eccentricity": 0.0,
        "Inclination(deg)": 60.0,
        "Latitude(deg)": 51.74589254941744,
        "Longitude(deg)": -136.75357308136464,
        "Mean Anomaly(deg)": 115.16560614546184,
        "RAAN(deg)": 189.99957995086027,
        "Satellite Name": "Test1 843",
        "Satellite Number": 843,
        "Semi-Major Axis(m)": 6980739.136638005,
        "Time(s)": 10
    },
    {
        "Altitude(m)": 610237.0701200871,
        "Argument of Periapsis(deg)": 0.0002083789182659281,
        "Eccentricity": 0.0,
        "Inclination(deg)": 60.0,
        "Latitude(deg)": 51.37508724734453,
        "Longitude(deg)": -135.99773487405164,
        "Mean Anomaly(deg)": 115.78571229092368,
        "RAAN(deg)": 189.99915990172053,
        "Satellite Name": "Test1 843",
        "Satellite Number": 843,
        "Semi-Major Axis(m)": 6980739.136638005,
        "Time(s)": 20
    },
    {
        "Altitude(m)": 610150.9644516773,
        "Argument of Periapsis(deg)": 0.00031256837739889213,
        "Eccentricity": 0.0,
        "Inclination(deg)": 60.0,
        "Latitude(deg)": 50.99892149041932,
        "Longitude(deg)": -135.2547560307792,
        "Mean Anomaly(deg)": 116.40581843638546,
        "RAAN(deg)": 189.9987398525808,
        "Satellite Name": "Test1 843",
        "Satellite Number": 843,
        "Semi-Major Axis(m)": 6980739.136638005,
        "Time(s)": 30
    },
    {
        "Altitude(m)": 610063.5958706073,
        "Argument of Periapsis(deg)": 0.0004167578365318562,
        "Eccentricity": 0.0,
        "Inclination(deg)": 60.0,
        "Latitude(deg)": 50.61755010840862,
        "Longitude(deg)": -134.52443571984708,
        "Mean Anomaly(deg)": 117.0259245818473,
        "RAAN(deg)": 189.99831980344103,
        "Satellite Name": "Test1 843",
        "Satellite Number": 843,
        "Semi-Major Axis(m)": 6980739.136638005,
        "Time(s)": 40
    },
    {
        "Altitude(m)": 609975.0162583137,
        "Argument of Periapsis(deg)": 0.0005209472956648203,
        "Eccentricity": 0.0,
        "Inclination(deg)": 60.0,
        "Latitude(deg)": 50.231124152011695,
        "Longitude(deg)": -133.8065674666276,
        "Mean Anomaly(deg)": 117.64603072730915,
        "RAAN(deg)": 189.9978997543013,
        "Satellite Name": "Test1 843",
        "Satellite Number": 843,
        "Semi-Major Axis(m)": 6980739.136638005,
        "Time(s)": 50
    },
    {
        "Altitude(m)": 609885.2783090487,
        "Argument of Periapsis(deg)": 0.0006251367547977843,
        "Eccentricity": 0.0,
        "Inclination(deg)": 60.0,
        "Latitude(deg)": 49.83979088239174,
        "Longitude(deg)": -133.10093962853819,
        "Mean Anomaly(deg)": 118.26613687277099,
        "RAAN(deg)": 189.99747970516157,
        "Satellite Name": "Test1 843",
        "Satellite Number": 843,
        "Semi-Major Axis(m)": 6980739.136638005,
        "Time(s)": 60
    },
    {
        "Altitude(m)": 609794.435504397,
        "Argument of Periapsis(deg)": 0.0007293262139307483,
        "Eccentricity": 0.0,
        "Inclination(deg)": 60.0,
        "Latitude(deg)": 49.44369377393856,
        "Longitude(deg)": -132.40733580075698,
        "Mean Anomaly(deg)": 118.88624301823283,
        "RAAN(deg)": 189.99705965602183,
        "Satellite Name": "Test1 843",
        "Satellite Number": 843,
        "Semi-Major Axis(m)": 6980739.136638005,
        "Time(s)": 70
    },
    {
        "Altitude(m)": 609702.542087379,
        "Argument of Periapsis(deg)": 0.0008335156730637124,
        "Eccentricity": 0.0,
        "Inclination(deg)": 60.0,
        "Latitude(deg)": 49.042972528906695,
        "Longitude(deg)": -131.7255366674891,
        "Mean Anomaly(deg)": 119.50634916369467,
        "RAAN(deg)": 189.99663960688207,
        "Satellite Name": "Test1 843",
        "Satellite Number": 843,
        "Semi-Major Axis(m)": 6980739.136638005,
        "Time(s)": 80
    },
    {
        "Altitude(m)": 609609.6530361688,
        "Argument of Periapsis(deg)": 0.0009377051321966765,
        "Eccentricity": 0.0,
        "Inclination(deg)": 60.0,
        "Latitude(deg)": 48.637763102644136,
        "Longitude(deg)": -131.0553202753094,
        "Mean Anomaly(deg)": 120.12645530915646,
        "RAAN(deg)": 189.99621955774234,
        "Satellite Name": "Test1 843",
        "Satellite Number": 843,
        "Semi-Major Axis(m)": 6980739.136638005,
        "Time(s)": 90
    },
    {
        "Altitude(m)": 609515.8240374054,
        "Argument of Periapsis(deg)": 0.0010418945913296407,
        "Eccentricity": 0.0,
        "Inclination(deg)": 60.0,
        "Latitude(deg)": 48.228197738210525,
        "Longitude(deg)": -130.39646224397796,
        "Mean Anomaly(deg)": 120.74656145461834,
        "RAAN(deg)": 189.99579950860257,
        "Satellite Name": "Test1 843",
        "Satellite Number": 843,
        "Semi-Major Axis(m)": 6980739.136638005,
        "Time(s)": 100
    },
    {
        "Altitude(m)": 609421.1114591309,
        "Argument of Periapsis(deg)": 0.0011460840504626045,
        "Eccentricity": 0.0,
        "Inclination(deg)": 60.0,
        "Latitude(deg)": 47.81440500926443,
        "Longitude(deg)": -129.748737430322,
        "Mean Anomaly(deg)": 121.36666760008015,
        "RAAN(deg)": 189.9953794594628,
        "Satellite Name": "Test1 843",
        "Satellite Number": 843,
        "Semi-Major Axis(m)": 6980739.136638005,
        "Time(s)": 110
    },
    {
        "Altitude(m)": 609325.5723233866,
        "Argument of Periapsis(deg)": 0.0012502735095955685,
        "Eccentricity": 0.0,
        "Inclination(deg)": 60.0,
        "Latitude(deg)": 47.39650987016906,
        "Longitude(deg)": -129.11192002229004,
        "Mean Anomaly(deg)": 121.98677374554197,
        "RAAN(deg)": 189.9949594103231,
        "Satellite Name": "Test1 843",
        "Satellite Number": 843,
        "Semi-Major Axis(m)": 6980739.136638005,
        "Time(s)": 120
    },
    {
        "Altitude(m)": 609229.264278416,
        "Argument of Periapsis(deg)": 0.0013544629687285324,
        "Eccentricity": 0.0,
        "Inclination(deg)": 60.0,
        "Latitude(deg)": 46.974633712352556,
        "Longitude(deg)": -128.4857835789946,
        "Mean Anomaly(deg)": 122.60687989100377,
        "RAAN(deg)": 189.99453936118337,
        "Satellite Name": "Test1 843",
        "Satellite Number": 843,
        "Semi-Major Axis(m)": 6980739.136638005,
        "Time(s)": 130
    },
    {
        "Altitude(m)": 609132.245570572,
        "Argument of Periapsis(deg)": 0.0014586524278614966,
        "Eccentricity": 0.0,
        "Inclination(deg)": 60.0,
        "Latitude(deg)": 46.548894426031815,
        "Longitude(deg)": -127.87010253259068,
        "Mean Anomaly(deg)": 123.2269860364656,
        "RAAN(deg)": 189.9941193120436,
        "Satellite Name": "Test1 843",
        "Satellite Number": 843,
        "Semi-Major Axis(m)": 6980739.136638005,
        "Time(s)": 140
    },
    {
        "Altitude(m)": 609034.575015858,
        "Argument of Periapsis(deg)": 0.0015628418869944607,
        "Eccentricity": 0.0,
        "Inclination(deg)": 60.0,
        "Latitude(deg)": 46.11940646647735,
        "Longitude(deg)": -127.26465212923817,
        "Mean Anomaly(deg)": 123.84709218192745,
        "RAAN(deg)": 189.99369926290385,
        "Satellite Name": "Test1 843",
        "Satellite Number": 843,
        "Semi-Major Axis(m)": 6980739.136638005,
        "Time(s)": 150
    },
    {
        "Altitude(m)": 608936.311971168,
        "Argument of Periapsis(deg)": 0.0016670313461274247,
        "Eccentricity": 0.0,
        "Inclination(deg)": 60.0,
        "Latitude(deg)": 45.686280924071895,
        "Longitude(deg)": -126.66920832497897,
        "Mean Anomaly(deg)": 124.4671983273893,
        "RAAN(deg)": 189.99327921376414,
        "Satellite Name": "Test1 843",
        "Satellite Number": 843,
        "Semi-Major Axis(m)": 6980739.136638005,
        "Time(s)": 160
    },
    {
        "Altitude(m)": 608837.5163052488,
        "Argument of Periapsis(deg)": 0.0017712208052603888,
        "Eccentricity": 0.0,
        "Inclination(deg)": 60.0,
        "Latitude(deg)": 45.249625597482094,
        "Longitude(deg)": -126.0835491523124,
        "Mean Anomaly(deg)": 125.08730447285114,
        "RAAN(deg)": 189.9928591646244,
        "Satellite Name": "Test1 843",
        "Satellite Number": 843,
        "Semi-Major Axis(m)": 6980739.136638005,
        "Time(s)": 170
    },
    {
        "Altitude(m)": 608738.2483693081,
        "Argument of Periapsis(deg)": 0.001875410264393353,
        "Eccentricity": 0.0,
        "Inclination(deg)": 60.0,
        "Latitude(deg)": 44.80954506932076,
        "Longitude(deg)": -125.50745453456663,
        "Mean Anomaly(deg)": 125.70741061831296,
        "RAAN(deg)": 189.99243911548464,
        "Satellite Name": "Test1 843",
        "Satellite Number": 843,
        "Semi-Major Axis(m)": 6980739.136638005,
        "Time(s)": 180
    },
    {
        "Altitude(m)": 608638.5689674206,
        "Argument of Periapsis(deg)": 0.0019795997235263173,
        "Eccentricity": 0.0,
        "Inclination(deg)": 60.0,
        "Latitude(deg)": 44.36614078374116,
        "Longitude(deg)": -124.94070606368922,
        "Mean Anomaly(deg)": 126.32751676377477,
        "RAAN(deg)": 189.99201906634488,
        "Satellite Name": "Test1 843",
        "Satellite Number": 843,
        "Semi-Major Axis(m)": 6980739.136638005,
        "Time(s)": 190
    }
]